0 ARIANE 5 DEB (SYLDA)
1 32020U 07036C   13282.13379760  .00029355  00000-0  58938-2 0  5686
2 32020 002.3459 059.2894 6407869 354.3950 345.2625 03.45025359 61671
0 ARIANE 5 DEB (SYLDA)
1 32020U 07036C   13283.30548398  .00060611  00000-0  11663-1 0  5707
2 32020 002.3328 059.0556 6408760 355.4060 000.7247 03.45068474 61728
0 ARIANE 5 DEB (SYLDA)
1 32020U 07036C   13283.57247670  .00030917  00000-0  61706-2 0  5693
2 32020 002.3477 058.3305 6407252 356.3404 332.3507 03.45129033 61726
0 ARIANE 5 DEB (SYLDA)
1 32020U 07036C   13284.47558135  .00031259  00000-0  62478-2 0  5703
2 32020 002.3489 057.7325 6406964 357.5495 014.4409 03.45162457 61755
0 ARIANE 5 DEB (SYLDA)
1 32020U 07036C   13286.50553291  .00033045  00000-0  65519-2 0  5723
2 32020 002.3510 056.3475 6406440 000.3364 017.2310 03.45277155 61820
0 ARIANE 5 DEB (SYLDA)
1 32020U 07036C   13287.67251819  .00038264  00000-0  75017-2 0  5736
2 32020 002.3525 055.5749 6406268 001.9253 027.9065 03.45355017 61866
0 ARIANE 5 DEB (SYLDA)
1 32020U 07036C   13288.53306734  .00038805  00000-0  76074-2 0  5745
2 32020 002.3535 054.9441 6405811 003.1578 017.8748 03.45425388 61894
0 ARIANE 5 DEB (SYLDA)
1 32020U 07036C   13290.23867973  .00038086  00000-0  73764-2 0  5757
2 32020 002.3555 053.8243 6405393 005.4651 339.1163 03.45543897 61950
0 ARIANE 5 DEB (SYLDA)
1 32020U 07036C   13291.11231198  .00037119  00000-0  71371-2 0  5768
2 32020 002.3564 053.2600 6405136 006.6418 345.9260 03.45613300 61983
0 ARIANE 5 DEB (SYLDA)
1 32020U 07036C   13292.58471939  .00042241  00000-0  81071-2 0  5770
2 32020 002.3591 052.1082 6404478 008.7988 018.1444 03.45711241 62031
0 ARIANE 5 DEB (SYLDA)
1 32020U 07036C   13293.13698234  .00041681  00000-0  79104-2 0  5783
2 32020 002.3589 051.8141 6404422 009.4967 345.4660 03.45764416 62054
0 ARIANE 5 DEB (SYLDA)
1 32020U 07036C   13293.76005332  .00043759  00000-0  82765-2 0  5799
2 32020 002.3569 051.4503 6404140 010.2824 041.0788 03.45815625 62070
0 ARIANE 5 DEB (SYLDA)
1 32020U 07036C   13293.99741547  .00040042  00000-0  75206-2 0  5805
2 32020 002.3572 051.2570 6404117 010.6718 336.5147 03.45848532 62081
0 ARIANE 5 DEB (SYLDA)
1 32020U 07036C   13295.47084571  .00041693  00000-0  77241-2 0  5812
2 32020 002.3598 050.2758 6403550 012.6701 011.1669 03.45977807 62139
0 ARIANE 5 DEB (SYLDA)
1 32020U 07036C   13296.02138546  .00039214  00000-0  72817-2 0  5827
2 32020 002.3605 049.8822 6403191 013.4532 336.8374 03.46017558 62157
